1 33063U 08031D   19273.04419912 -.00000029  00000-0  26824-4 0  9997
2 33063  48.4425 112.4453 0007975 108.0504 252.1278 14.72625419606257
1 33063U 08031D   19273.79056609 -.00000032 +00000-0 +26352-4 0  9999
2 33063 048.4426 108.9369 0007990 111.5090 248.6674 14.72625681605946
1 33063U 08031D   19274.06197224 -.00000033  00000-0  26237-4 0  9992
2 33063  48.4426 107.6612 0007994 112.6719 247.5039 14.72625777606408
1 33063U 08031D   19274.80833894 -.00000032 +00000-0 +26367-4 0  9997
2 33063 048.4426 104.1528 0008009 116.0947 244.0790 14.72626071606094
1 33063U 08031D   19275.48685394 -.00000030  00000-0  26658-4 0  9993
2 33063  48.4426 100.9633 0008018 119.1529 241.0186 14.72626340606618
1 33063U 08031D   19275.62255691 -.00000032 +00000-0 +26334-4 0  9995
2 33063 048.4426 100.3254 0008024 119.7728 240.3983 14.72626394606217
1 33063U 08031D   19276.70818062 -.00000038  00000-0  25480-4 0  9999
2 33063  48.4427  95.2223 0008048 124.6356 235.5316 14.72626764606794
1 33063U 08031D   19276.91173506 -.00000036 +00000-0 +25679-4 0  9997
2 33063 048.4427 094.2655 0008054 125.4968 234.6697 14.72626835606406
1 33063U 08031D   19277.79380404 -.00000041  00000-0  24876-4 0  9995
2 33063  48.4427  90.1191 0008070 129.4151 230.7477 14.72627097606956
1 33063U 08031D   19277.86165550 -.00000041 +00000-0 +24940-4 0  9998
2 33063 048.4427 089.8002 0008072 129.6855 230.4770 14.72627119606540
1 33063U 08031D   19278.81157568 -.00000044  00000-0  24509-4 0  9998
2 33063  48.4429  85.3349 0008100 133.9377 226.2204 14.72627405607102
1 33063U 08031D   19278.87942711 -.00000043 +00000-0 +24610-4 0  9998
2 33063 048.4429 085.0160 0008104 134.2397 225.9182 14.72627433606695
1 33063U 08031D   19279.82934705 -.00000044 +00000-0 +24528-4 0  9997
2 33063 048.4430 080.5507 0008128 138.3801 221.7730 14.72627711606831
1 33063U 08031D   19279.89719846 -.00000044  00000-0  24544-4 0  9999
2 33063  48.4430  80.2318 0008131 138.6848 221.4680 14.72627736607262
1 33063U 08031D   19280.84711809 -.00000044 +00000-0 +24409-4 0  9997
2 33063 048.4433 075.7667 0008169 142.9641 217.1836 14.72628035606987
1 33063U 08031D   19280.91496948 -.00000044  00000-0  24558-4 0  9994
2 33063  48.4433  75.4478 0008171 143.2484 216.8990 14.72628068607418
1 33063U 08031D   19281.86488882 -.00000048 +00000-0 +23809-4 0  9999
2 33063 048.4434 070.9827 0008204 147.5249 212.6169 14.72628341607135
1 33063U 08031D   19282.40769975 -.00000044  00000-0  24554-4 0  9999
2 33063  48.4436  68.4311 0008219 149.9245 210.2141 14.72628540607635
1 33063U 08031D   19282.88265921 -.00000039 +00000-0 +25225-4 0  9993
2 33063 048.4436 066.1987 0008243 152.0843 208.0512 14.72628747607282
1 33063U 08031D   19283.42546993 -.00000039  00000-0  25189-4 0  9994
2 33063  48.4437  63.6472 0008264 154.5601 205.5719 14.72628936607782
1 33063U 08031D   19283.83257802 -.00000037 +00000-0 +25618-4 0  9992
2 33063 048.4438 061.7337 0008279 156.2255 203.9041 14.72629087607421
1 33063U 08031D   19284.78249663 -.00000040  00000-0  25130-4 0  9996
2 33063  48.4439  57.2687 0008319 160.3759 199.7475 14.72629385607985
1 33063U 08031D   19284.85034793 -.00000038 +00000-0 +25385-4 0  9999
2 33063 048.4439 056.9498 0008321 160.6820 199.4409 14.72629423607578
